{"type": "FeatureCollection", "features": [ {"type": "Feature", "properties": {"norad_id": 30306, "name": "FENGYUN 1C DEB", "group": "fengyun-1c-debris", "lat": -25.32766184161596, "lon": -154.73444285433288, "alt_km": 871.4666126730408, "timestamp": "2025-12-14T07:33:19.752961+00:00", "meta": {"OBJECT_NAME": "FENGYUN 1C DEB", "OBJECT_ID": "1999-025ZT", "EPOCH": "2025-12-13T13:46:42.611520", "MEAN_MOTION": 14.28209884, "ECCENTRICITY": 0.01132929, "INCLINATION": 98.5877, "RA_OF_ASC_NODE": 28.6382, "ARG_OF_PERICENTER": 355.0473, "MEAN_ANOMALY": 4.9579, "EPHEMERIS_TYPE": 0, "CLASSIFICATION_TYPE": "U", "NORAD_CAT_ID": 30306, "ELEMENT_SET_NO": 999, "REV_AT_EPOCH": 97693, "BSTAR": 0.0012578807, "MEAN_MOTION_DOT": 3.313e-05, "MEAN_MOTION_DDOT": 0}, "tle": {"line1": "1 30306U 99025ZT  25347.57410430  .00003313  00000+0  12579-2 0  9997", "line2": "2 30306  98.5877  28.6382 0113292 355.0473   4.9579 14.28209884976936"}}, "geometry": {"type": "Point", "coordinates": [-154.73444285433288, -25.32766184161596]}}, {"type": "Feature", "properties": {"norad_id": 30309, "name": "FENGYUN 1C DEB", "group": "fengyun-1c-debris", "lat": -79.61227373196505, "lon": 107.93031888042064, "alt_km": 919.6849341481693, "timestamp": "2025-12-14T07:33:19.752972+00:00", "meta": {"OBJECT_NAME": "FENGYUN 1C DEB", "OBJECT_ID": "1999-025ZW", "EPOCH": "2025-12-13T14:44:10.628160", "MEAN_MOTION": 13.9352085, "ECCENTRICITY": 0.00933947, "INCLINATION": 99.2261, "RA_OF_ASC_NODE": 44.777, "ARG_OF_PERICENTER": 189.4736, "MEAN_ANOMALY": 170.4665, "EPHEMERIS_TYPE": 0, "CLASSIFICATION_TYPE": "U", "NORAD_CAT_ID": 30309, "ELEMENT_SET_NO": 999, "REV_AT_EPOCH": 96045, "BSTAR": 0.00036087802, "MEAN_MOTION_DOT": 4.46e-06, "MEAN_MOTION_DDOT": 0}, "tle": {"line1": "1 30309U 99025ZW  25347.61401190  .00000446  00000+0  36088-3 0  9994", "line2": "2 30309  99.2261  44.7770 0093394 189.4736 170.4665 13.93520850960450"}}, "geometry": {"type": "Point", "coordinates": [107.93031888042064, -79.61227373196505]}}, {"type": "Feature", "properties": {"norad_id": 30310, "name": "FENGYUN 1C DEB", "group": "fengyun-1c-debris", "lat": -79.9976343781265, "lon": 67.73587469656174, "alt_km": 831.9921226654114, "timestamp": "2025-12-14T07:33:19.752982+00:00", "meta": {"OBJECT_NAME": "FENGYUN 1C DEB", "OBJECT_ID": "1999-025ZX", "EPOCH": "2025-12-13T13:11:21.957216", "MEAN_MOTION": 14.08389438, "ECCENTRICITY": 0.02408551, "INCLINATION": 98.6654, "RA_OF_ASC_NODE": 7.1561, "ARG_OF_PERICENTER": 355.2055, "MEAN_ANOMALY": 4.681, "EPHEMERIS_TYPE": 0, "CLASSIFICATION_TYPE": "U", "NORAD_CAT_ID": 30310, "ELEMENT_SET_NO": 999, "REV_AT_EPOCH": 96743, "BSTAR": 0.0009298983, "MEAN_MOTION_DOT": 2.035e-05, "MEAN_MOTION_DDOT": 0}, "tle": {"line1": "1 30310U 99025ZX  25347.54955969  .00002035  00000+0  92990-3 0  9996", "line2": "2 30310  98.6654   7.1561 0240855 355.2055   4.6810 14.08389438967432"}}, "geometry": {"type": "Point", "coordinates": [67.73587469656174, -79.9976343781265]}}, {"type": "Feature", "properties": {"norad_id": 30311, "name": "FENGYUN 1C DEB", "group": "fengyun-1c-debris", "lat": -52.54189483838072, "lon": 96.07381075031881, "alt_km": 1025.493740855699, "timestamp": "2025-12-14T07:33:19.752993+00:00", "meta": {"OBJECT_NAME": "FENGYUN 1C DEB", "OBJECT_ID": "1999-025ZY", "EPOCH": "2025-12-13T12:39:03.042720", "MEAN_MOTION": 13.77890166, "ECCENTRICITY": 0.01653288, "INCLINATION": 99.1395, "RA_OF_ASC_NODE": 83.1866, "ARG_OF_PERICENTER": 194.9121, "MEAN_ANOMALY": 164.7123, "EPHEMERIS_TYPE": 0, "CLASSIFICATION_TYPE": "U", "NORAD_CAT_ID": 30311, "ELEMENT_SET_NO": 999, "REV_AT_EPOCH": 94971, "BSTAR": 0.00063347008, "MEAN_MOTION_DOT": 6.6e-06, "MEAN_MOTION_DDOT": 0}, "tle": {"line1": "1 30311U 99025ZY  25347.52711855  .00000660  00000+0  63347-3 0  9995", "line2": "2 30311  99.1395  83.1866 0165328 194.9121 164.7123 13.77890166949712"}}, "geometry": {"type": "Point", "coordinates": [96.07381075031881, -52.54189483838072]}}, {"type": "Feature", "properties": {"norad_id": 30312, "name": "FENGYUN 1C DEB", "group": "fengyun-1c-debris", "lat": 63.28594538748784, "lon": 49.58887109173068, "alt_km": 739.5014112574472, "timestamp": "2025-12-14T07:33:19.753003+00:00", "meta": {"OBJECT_NAME": "FENGYUN 1C DEB", "OBJECT_ID": "1999-025ZZ", "EPOCH": "2025-12-13T04:46:51.580704", "MEAN_MOTION": 14.45844242, "ECCENTRICITY": 0.00119255, "INCLINATION": 98.8655, "RA_OF_ASC_NODE": 66.4914, "ARG_OF_PERICENTER": 208.553, "MEAN_ANOMALY": 172.795, "EPHEMERIS_TYPE": 0, "CLASSIFICATION_TYPE": "U", "NORAD_CAT_ID": 30312, "ELEMENT_SET_NO": 999, "REV_AT_EPOCH": 97927, "BSTAR": 0.0036744767, "MEAN_MOTION_DOT": 0.00013035, "MEAN_MOTION_DDOT": 0}, "tle": {"line1": "1 30312U 99025ZZ  25347.19920811  .00013035  00000+0  36745-2 0  9994", "line2": "2 30312  98.8655  66.4914 0011925 208.5530 172.7950 14.45844242979276"}}, "geometry": {"type": "Point", "coordinates": [49.58887109173068, 63.28594538748784]}}, {"type": "Feature", "properties": {"norad_id": 30313, "name": "FENGYUN 1C DEB", "group": "fengyun-1c-debris", "lat": 33.96660911235587, "lon": 68.46069189774131, "alt_km": 786.2060145389623, "timestamp": "2025-12-14T07:33:19.753014+00:00", "meta": {"OBJECT_NAME": "FENGYUN 1C DEB", "OBJECT_ID": "1999-025AAA", "EPOCH": "2025-12-13T12:54:55.281312", "MEAN_MOTION": 14.25464789, "ECCENTRICITY": 0.00563783, "INCLINATION": 98.8751, "RA_OF_ASC_NODE": 73.7171, "ARG_OF_PERICENTER": 333.6148, "MEAN_ANOMALY": 36.943, "EPHEMERIS_TYPE": 0, "CLASSIFICATION_TYPE": "U", "NORAD_CAT_ID": 30313, "ELEMENT_SET_NO": 999, "REV_AT_EPOCH": 97101, "BSTAR": 0.0026369908, "MEAN_MOTION_DOT": 6.291e-05, "MEAN_MOTION_DDOT": 0}, "tle": {"line1": "1 30313U 99025AAA 25347.53813983  .00006291  00000+0  26370-2 0  9993", "line2": "2 30313  98.8751  73.7171 0056378 333.6148  36.9430 14.25464789971016"}}, "geometry": {"type": "Point", "coordinates": [68.46069189774131, 33.96660911235587]}}, {"type": "Feature", "properties": {"norad_id": 30314, "name": "FENGYUN 1C DEB", "group": "fengyun-1c-debris", "lat": -78.5371050905016, "lon": -134.3114486801488, "alt_km": 869.8449609767204, "timestamp": "2025-12-14T07:33:19.753024+00:00", "meta": {"OBJECT_NAME": "FENGYUN 1C DEB", "OBJECT_ID": "1999-025AAB", "EPOCH": "2025-12-11T11:23:18.286944", "MEAN_MOTION": 14.0118585, "ECCENTRICITY": 0.01424052, "INCLINATION": 98.3809, "RA_OF_ASC_NODE": 176.4445, "ARG_OF_PERICENTER": 1.4637, "MEAN_ANOMALY": 358.6919, "EPHEMERIS_TYPE": 0, "CLASSIFICATION_TYPE": "U", "NORAD_CAT_ID": 30314, "ELEMENT_SET_NO": 999, "REV_AT_EPOCH": 96091, "BSTAR": 0.0016680196, "MEAN_MOTION_DOT": 2.699e-05, "MEAN_MOTION_DDOT": 0}, "tle": {"line1": "1 30314U 99025AAB 25345.47451721  .00002699  00000+0  16680-2 0  9994", "line2": "2 30314  98.3809 176.4445 0142405   1.4637 358.6919 14.01185850960917"}}, "geometry": {"type": "Point", "coordinates": [-134.3114486801488, -78.5371050905016]}}, {"type": "Feature", "properties": {"norad_id": 30315, "name": "FENGYUN 1C DEB", "group": "fengyun-1c-debris", "lat": -5.51535845607479, "lon": 176.94124926347746, "alt_km": 857.1258560055667, "timestamp": "2025-12-14T07:33:19.753035+00:00", "meta": {"OBJECT_NAME": "FENGYUN 1C DEB", "OBJECT_ID": "1999-025AAC", "EPOCH": "2025-12-13T12:50:22.996896", "MEAN_MOTION": 14.19066266, "ECCENTRICITY": 0.00352036, "INCLINATION": 98.6017, "RA_OF_ASC_NODE": 357.0219, "ARG_OF_PERICENTER": 358.0417, "MEAN_ANOMALY": 165.8975, "EPHEMERIS_TYPE": 0, "CLASSIFICATION_TYPE": "U", "NORAD_CAT_ID": 30315, "ELEMENT_SET_NO": 999, "REV_AT_EPOCH": 97718, "BSTAR": 0.00050051034, "MEAN_MOTION_DOT": 1.01e-05, "MEAN_MOTION_DDOT": 0}, "tle": {"line1": "1 30315U 99025AAC 25347.53498839  .00001010  00000+0  50051-3 0  9992", "line2": "2 30315  98.6017 357.0219 0035203 358.0417 165.8975 14.19066266977187"}}, "geometry": {"type": "Point", "coordinates": [176.94124926347746, -5.51535845607479]}}, {"type": "Feature", "properties": {"norad_id": 30316, "name": "FENGYUN 1C DEB", "group": "fengyun-1c-debris", "lat": 81.22610075234346, "lon": 10.37676470279631, "alt_km": 683.2905061881111, "timestamp": "2025-12-14T07:33:19.753045+00:00", "meta": {"OBJECT_NAME": "FENGYUN 1C DEB", "OBJECT_ID": "1999-025AAD", "EPOCH": "2025-12-13T13:00:42.476256", "MEAN_MOTION": 14.56090172, "ECCENTRICITY": 0.00356188, "INCLINATION": 98.6475, "RA_OF_ASC_NODE": 89.9846, "ARG_OF_PERICENTER": 37.2783, "MEAN_ANOMALY": 323.0875, "EPHEMERIS_TYPE": 0, "CLASSIFICATION_TYPE": "U", "NORAD_CAT_ID": 30316, "ELEMENT_SET_NO": 999, "REV_AT_EPOCH": 98348, "BSTAR": 0.0025492003, "MEAN_MOTION_DOT": 0.00011301, "MEAN_MOTION_DDOT": 0}, "tle": {"line1": "1 30316U 99025AAD 25347.54215829  .00011301  00000+0  25492-2 0  9994", "line2": "2 30316  98.6475  89.9846 0035618  37.2783 323.0875 14.56090172983486"}}, "geometry": {"type": "Point", "coordinates": [10.37676470279631, 81.22610075234346]}}, {"type": "Feature", "properties": {"norad_id": 30317, "name": "FENGYUN 1C DEB", "group": "fengyun-1c-debris", "lat": 69.29830526373166, "lon": -167.0980834912676, "alt_km": 879.8311672501395, "timestamp": "2025-12-14T07:33:19.753055+00:00", "meta": {"OBJECT_NAME": "FENGYUN 1C DEB", "OBJECT_ID": "1999-025AAE", "EPOCH": "2025-12-13T12:15:51.056640", "MEAN_MOTION": 14.06948018, "ECCENTRICITY": 0.00241171, "INCLINATION": 98.7866, "RA_OF_ASC_NODE": 347.9617, "ARG_OF_PERICENTER": 274.5229, "MEAN_ANOMALY": 85.3185, "EPHEMERIS_TYPE": 0, "CLASSIFICATION_TYPE": "U", "NORAD_CAT_ID": 30317, "ELEMENT_SET_NO": 999, "REV_AT_EPOCH": 97024, "BSTAR": 0.00032901814, "MEAN_MOTION_DOT": 5.07e-06, "MEAN_MOTION_DDOT": 0}, "tle": {"line1": "1 30317U 99025AAE 25347.51100760  .00000507  00000+0  32902-3 0  9990", "line2": "2 30317  98.7866 347.9617 0024117 274.5229  85.3185 14.06948018970246"}}, "geometry": {"type": "Point", "coordinates": [-167.0980834912676, 69.29830526373166]}}]}